NORAD_CAT_ID,OBJECT_NAME,OBJECT_TYPE,EPOCH,MEAN_MOTION,ECCENTRICITY,INCLINATION,RA_OF_ASC_NODE,ARG_OF_PERICENTER,MEAN_ANOMALY,BSTAR,MEAN_MOTION_DOT,MEAN_MOTION_DDOT,TLE_LINE0,TLE_LINE1,TLE_LINE2,SEMIMAJOR_AXIS,PERIOD,APOGEE,PERIGEE,DECAYED
53029.0,STARLINK-4143,PAYLOAD,2024-03-19 04:55:40,15.08840524,0.0001733,53.2172,68.4984,110.1435,249.9743,5.9121e-05,6.53e-06,0.0,0 STARLINK-4143,1 53029U 22076AV  24079.20533017  .00000653  00000-0  59121-4 0  9995,2 53029  53.2172  68.4984 0001733 110.1435 249.9743 15.08840524 94827,6917.879,95.438,540.943,538.545,0.0
53029.0,STARLINK-4143,PAYLOAD,2024-03-19 09:41:49,15.08842309,0.0001821,53.2174,67.6055,112.775,247.3435,7.0588e-05,8.36e-06,0.0,0 STARLINK-4143,1 53029U 22076AV  24079.40404863  .00000836  00000-0  70588-4 0  9996,2 53029  53.2174  67.6055 0001821 112.7750 247.3435 15.08842309 94389,6917.873,95.437,540.998,538.479,0.0
53029.0,STARLINK-4143,PAYLOAD,2024-03-20 07:57:12,15.08852532,0.0001548,53.2164,63.44,98.6759,261.4409,0.00014592,2.036e-05,0.0,0 STARLINK-4143,1 53029U 22076AV  24080.33140038  .00002036  00000-0  14592-3 0  9997,2 53029  53.2164  63.4400 0001548  98.6759 261.4409 15.08852532 94997,6917.842,95.437,540.778,538.636,0.0
53029.0,STARLINK-4143,PAYLOAD,2024-03-21 04:37:14,15.08840213,0.0001434,53.2166,59.5749,88.729,271.3866,4.8018e-05,4.76e-06,0.0,0 STARLINK-4143,1 53029U 22076AV  24081.19252834  .00000476  00000-0  48018-4 0  9997,2 53029  53.2166  59.5749 0001434  88.7290 271.3866 15.08840213 95121,6917.88,95.438,540.737,538.753,0.0
53029.0,STARLINK-4143,PAYLOAD,2024-03-21 07:48:00,15.0884403,0.000147,53.2168,58.9808,95.4551,264.6609,0.00012146,1.646e-05,0.0,0 STARLINK-4143,1 53029U 22076AV  24081.32500661  .00001646  00000-0  12146-3 0  9998,2 53029  53.2168  58.9808 0001470  95.4551 264.6609 15.08844030 94677,6917.868,95.437,540.75,538.716,0.0
53029.0,STARLINK-4143,PAYLOAD,2024-03-21 15:44:56,15.08841883,0.0001554,53.2173,57.4946,96.8166,263.3003,0.0001012,1.323e-05,0.0,0 STARLINK-4143,1 53029U 22076AV  24081.65620858  .00001323  00000-0  10120-3 0  9997,2 53029  53.2173  57.4946 0001554  96.8166 263.3003 15.08841883 94723,6917.875,95.437,540.815,538.665,0.0
53029.0,STARLINK-4143,PAYLOAD,2024-03-22 04:28:00,15.08852291,0.0001438,53.2154,55.1169,94.1206,265.9951,0.00027345,4.068e-05,0.0,0 STARLINK-4143,1 53029U 22076AV  24082.18612116  .00004068  00000-0  27345-3 0  9990,2 53029  53.2154  55.1169 0001438  94.1206 265.9951 15.08852291 95277,6917.843,95.437,540.703,538.713,0.0
53029.0,STARLINK-4143,PAYLOAD,2024-03-23 04:18:48,15.08838799,0.000144,53.2171,50.6555,87.92,272.1957,0.00010699,1.415e-05,0.0,0 STARLINK-4143,1 53029U 22076AV  24083.17973130  .00001415  00000-0  10699-3 0  9993,2 53029  53.2171  50.6555 0001440  87.9200 272.1957 15.08838799 95422,6917.884,95.438,540.745,538.753,0.0
53029.0,STARLINK-4143,PAYLOAD,2024-03-23 07:29:35,15.08840488,0.0001475,53.2175,50.0597,91.6015,268.5146,0.00014855,2.077e-05,0.0,0 STARLINK-4143,1 53029U 22076AV  24083.31221098  .00002077  00000-0  14855-3 0  9991,2 53029  53.2175  50.0597 0001475  91.6015 268.5146 15.08840488 94976,6917.879,95.438,540.764,538.724,0.0
53029.0,STARLINK-4143,PAYLOAD,2024-03-24 04:09:35,15.08863234,0.0001584,53.2175,46.1949,92.8277,267.2897,0.00071725,0.00011153,0.0,0 STARLINK-4143,1 53029U 22076AV  24084.17332317  .00011153  00000-0  71725-3 0  9997,2 53029  53.2175  46.1949 0001584  92.8277 267.2897 15.08863234 95577,6917.809,95.436,540.77,538.579,0.0
53029.0,STARLINK-4143,PAYLOAD,2024-03-24 07:20:21,15.0886707,0.0001667,53.2175,45.599,78.5082,281.6097,0.00073502,0.00011438,0.0,0 STARLINK-4143,1 53029U 22076AV  24084.30580110  .00011438  00000-0  73502-3 0  9999,2 53029  53.2175  45.5990 0001667  78.5082 281.6097 15.08867070 95128,6917.798,95.436,540.816,538.509,0.0
53029.0,STARLINK-4143,PAYLOAD,2024-03-24 21:38:50,15.08840828,0.0002607,53.2181,42.9209,95.2105,264.9185,0.00024564,3.623e-05,0.0,0 STARLINK-4143,1 53029U 22076AV  24084.90197687  .00003623  00000-0  24564-3 0  9999,2 53029  53.2181  42.9209 0002607  95.2105 264.9185 15.08840828 95681,6917.878,95.438,541.546,537.939,0.0
53029.0,STARLINK-4143,PAYLOAD,2024-03-25 04:00:23,15.08834617,9.5e-05,53.2177,41.7338,84.9644,275.1457,0.00050045,7.685e-05,0.0,0 STARLINK-4143,1 53029U 22076AV  24085.16693761  .00007685  00000-0  50045-3 0  9997,2 53029  53.2177  41.7338 0000950  84.9644 275.1457 15.08834617 95728,6917.897,95.438,540.419,539.105,0.0
53029.0,STARLINK-4143,PAYLOAD,2024-03-25 13:32:42,15.08831558,7.68e-05,53.2174,39.9479,84.7671,275.3409,0.00098978,0.00015496,0.0,0 STARLINK-4143,1 53029U 22076AV  24085.56438158  .00015496  00000-0  98978-3 0  9994,2 53029  53.2174  39.9479 0000768  84.7671 275.3409 15.08831558 95310,6917.906,95.438,540.302,539.24,0.0
53029.0,STARLINK-4143,PAYLOAD,2024-03-26 05:26:34,15.08836883,9.87e-05,53.2185,36.9791,95.2483,264.8622,0.00084328,0.00013157,0.0,0 STARLINK-4143,1 53029U 22076AV  24086.22679127  .00013157  00000-0  84328-3 0  9997,2 53029  53.2185  36.9791 0000987  95.2483 264.8622 15.08836883 95885,6917.89,95.438,540.438,539.072,0.0
53029.0,STARLINK-4143,PAYLOAD,2024-03-26 13:23:30,15.0884405,9.47e-05,53.2183,35.4913,87.731,272.3791,0.00086682,0.00013536,0.0,0 STARLINK-4143,1 53029U 22076AV  24086.55799068  .00013536  00000-0  86682-3 0  9996,2 53029  53.2183  35.4913 0000947  87.7310 272.3791 15.08844050 95464,6917.868,95.437,540.388,539.078,0.0
53029.0,STARLINK-4143,PAYLOAD,2024-03-27 13:14:16,15.08855606,1.91e-05,53.2172,31.0278,327.321,32.777,0.00010286,1.351e-05,0.0,0 STARLINK-4143,1 53029U 22076AV  24087.55157782  .00001351  00000-0  10286-3 0  9997,2 53029  53.2172  31.0278 0000191 327.3210  32.7770 15.08855606 96084,6917.833,95.437,539.83,539.566,0.0
53029.0,STARLINK-4143,PAYLOAD,2024-03-28 13:05:03,15.08844216,8.82e-05,53.2186,26.5697,82.6544,277.4549,0.00032313,4.859e-05,0.0,0 STARLINK-4143,1 53029U 22076AV  24088.54518032  .00004859  00000-0  32313-3 0  9997,2 53029  53.2186  26.5697 0000882  82.6544 277.4549 15.08844216 96235,6917.868,95.437,540.343,539.122,0.0
53029.0,STARLINK-4143,PAYLOAD,2024-03-28 19:26:36,15.08843863,0.0001145,53.2186,25.3831,78.8317,281.2804,0.00013082,1.795e-05,0.0,0 STARLINK-4143,1 53029U 22076AV  24088.81014125  .00001795  00000-0  13082-3 0  9999,2 53029  53.2186  25.3831 0001145  78.8317 281.2804 15.08843863 95806,6917.869,95.437,540.526,538.941,0.0
53029.0,STARLINK-4143,PAYLOAD,2024-03-29 04:58:54,15.08854245,0.0001064,53.2179,23.5973,74.5039,285.607,0.00034706,5.242e-05,0.0,0 STARLINK-4143,1 53029U 22076AV  24089.20757778  .00005242  00000-0  34706-3 0  9998,2 53029  53.2179  23.5973 0001064  74.5039 285.6070 15.08854245 95864,6917.837,95.437,540.438,538.966,0.0
53029.0,STARLINK-4143,PAYLOAD,2024-03-30 01:38:55,15.08848235,8.68e-05,53.2183,19.7293,113.1769,246.9315,0.00025273,3.738e-05,0.0,0 STARLINK-4143,1 53029U 22076AV  24090.06869790  .00003738  00000-0  25273-3 0  9999,2 53029  53.2183  19.7293 0000868 113.1769 246.9315 15.08848235 96463,6917.855,95.437,540.321,539.12,0.0
53029.0,STARLINK-4143,PAYLOAD,2024-03-30 22:18:56,15.08846183,0.0001183,53.2183,15.868,91.2525,268.8602,0.00030009,4.492e-05,0.0,0 STARLINK-4143,1 53029U 22076AV  24090.92982351  .00004492  00000-0  30009-3 0  9994,2 53029  53.2183  15.8680 0001183  91.2525 268.8602 15.08846183 96122,6917.861,95.437,540.545,538.908,0.0
53029.0,STARLINK-4143,PAYLOAD,2024-03-31 04:40:28,15.0884857,0.0001177,53.2183,14.6743,102.5516,257.5607,0.00010242,1.343e-05,0.0,0 STARLINK-4143,1 53029U 22076AV  24091.19477859  .00001343  00000-0  10242-3 0  9995,2 53029  53.2183  14.6743 0001177 102.5516 257.5607 15.08848570 96636,6917.854,95.437,540.533,538.905,0.0
53029.0,STARLINK-4143,PAYLOAD,2024-03-31 18:58:57,15.08845817,0.0001387,53.2184,11.9969,114.6627,245.451,6.6303e-05,7.68e-06,0.0,0 STARLINK-4143,1 53029U 22076AV  24091.79094015  .00000768  00000-0  66303-4 0  9990,2 53029  53.2184  11.9969 0001387 114.6627 245.4510 15.08845817 96727,6917.863,95.437,540.687,538.768,0.0
53029.0,STARLINK-4143,PAYLOAD,2024-03-31 22:09:43,15.08843322,0.000124,53.218,11.4016,114.7672,245.3449,0.00026011,3.855e-05,0.0,0 STARLINK-4143,1 53029U 22076AV  24091.92342071  .00003855  00000-0  26011-3 0  9994,2 53029  53.2180  11.4016 0001240 114.7672 245.3449 15.08843322 96279,6917.87,95.437,540.593,538.877,0.0
53029.0,STARLINK-4143,PAYLOAD,2024-04-01 04:31:16,15.08833741,0.0001577,53.2182,10.2126,118.6636,241.4515,0.00085365,0.00013322,0.0,0 STARLINK-4143,1 53029U 22076AV  24092.18838737  .00013322  00000-0  85365-3 0  9999,2 53029  53.2182  10.2126 0001577 118.6636 241.4515 15.08833741 96787,6917.9,95.438,540.855,538.674,0.0
53029.0,STARLINK-4143,PAYLOAD,2024-04-02 10:43:35,15.08844359,0.0001286,53.2181,4.565,100.0392,260.0745,0.00012647,1.726e-05,0.0,0 STARLINK-4143,1 53029U 22076AV  24093.44694100  .00001726  00000-0  12647-3 0  9991,2 53029  53.2181   4.5650 0001286 100.0392 260.0745 15.08844359 96975,6917.867,95.437,540.622,538.842,0.0
53029.0,STARLINK-4143,PAYLOAD,2024-04-02 17:05:08,15.08841399,0.0001441,53.2191,3.3804,103.1015,257.0139,9.2186e-05,1.18e-05,0.0,0 STARLINK-4143,1 53029U 22076AV  24093.71190300  .00001180  00000-0  92186-4 0  9995,2 53029  53.2191   3.3804 0001441 103.1015 257.0139 15.08841399 96540,6917.876,95.437,540.738,538.744,0.0
53029.0,STARLINK-4143,PAYLOAD,2024-04-03 01:02:04,15.08837304,0.0001456,53.2193,1.8937,106.6142,253.501,-4.3154e-05,-9.75e-06,0.0,0 STARLINK-4143,1 53029U 22076AV  24094.04310648 -.00000975  00000-0 -43154-4 0  9995,2 53029  53.2193   1.8937 0001456 106.6142 253.5010 15.08837304 97065,6917.889,95.438,540.761,538.746,0.0
53029.0,STARLINK-4143,PAYLOAD,2024-04-03 10:34:23,15.08840805,0.0001441,53.2196,0.1098,88.5388,271.5769,-4.5512e-05,-1.012e-05,0.0,0 STARLINK-4143,1 53029U 22076AV  24094.44054472 -.00001012  00000-0 -45512-4 0  9992,2 53029  53.2196   0.1098 0001441  88.5388 271.5769 15.08840805 96657,6917.878,95.438,540.74,538.746,0.0
